{
  "type": "FeatureCollection",
  "features": [
    {
      "type": "Feature",
      "properties": {
        "norad_id": 45344,
        "name": "BEIDOU-3 G2 (C60)",
        "group": "gnss",
        "lat": -2.419347714038243,
        "lon": -30.370724748830984,
        "alt_km": 35768.273857491295,
        "timestamp": "2025-12-17T10:52:54.596718+00:00",
        "meta_object_name": "BEIDOU-3 G2 (C60)",
        "meta_object_id": "2020-017A",
        "meta_epoch": "2025-12-16T20:35:05.205696",
        "meta_mean_motion": 1.00273145,
        "meta_eccentricity": 0.00043557,
        "meta_inclination": 2.5049,
        "meta_ra_of_asc_node": 43.9477,
        "meta_arg_of_pericenter": 271.641,
        "meta_mean_anomaly": 158.9771,
        "meta_ephemeris_type": 0,
        "meta_classification_type": "U",
        "meta_norad_cat_id": 45344,
        "meta_element_set_no": 999,
        "meta_rev_at_epoch": 2143,
        "meta_bstar": 0,
        "meta_mean_motion_dot": -1.19e-06,
        "meta_mean_motion_ddot": 0,
        "tle_line1": "1 45344U 20017A   25350.85769914 -.00000119  00000+0  00000+0 0  9994",
        "tle_line2": "2 45344   2.5049  43.9477 0004355 271.6410 158.9771  1.00273145 21435"
      },
      "geometry": {
        "type": "Point",
        "coordinates": [
          -30.370724748830984,
          -2.419347714038243
        ]
      }
    },
    {
      "type": "Feature",
      "properties": {
        "norad_id": 45358,
        "name": "COSMOS 2545 (760)",
        "group": "gnss",
        "lat": -44.84216270937341,
        "lon": 167.1631025293295,
        "alt_km": 19106.947261364563,
        "timestamp": "2025-12-17T10:52:54.596731+00:00",
        "meta_object_name": "COSMOS 2545 (760)",
        "meta_object_id": "2020-018A",
        "meta_epoch": "2025-12-16T05:06:52.711776",
        "meta_mean_motion": 2.13102549,
        "meta_eccentricity": 0.00116565,
        "meta_inclination": 64.4672,
        "meta_ra_of_asc_node": 318.8472,
        "meta_arg_of_pericenter": 249.26,
        "meta_mean_anomaly": 110.6088,
        "meta_ephemeris_type": 0,
        "meta_classification_type": "U",
        "meta_norad_cat_id": 45358,
        "meta_element_set_no": 999,
        "meta_rev_at_epoch": 4476,
        "meta_bstar": 0,
        "meta_mean_motion_dot": -7e-07,
        "meta_mean_motion_ddot": 0,
        "tle_line1": "1 45358U 20018A   25350.21311009 -.00000070  00000+0  00000+0 0  9994",
        "tle_line2": "2 45358  64.4672 318.8472 0011656 249.2600 110.6088  2.13102549 44763"
      },
      "geometry": {
        "type": "Point",
        "coordinates": [
          167.1631025293295,
          -44.84216270937341
        ]
      }
    },
    {
      "type": "Feature",
      "properties": {
        "norad_id": 45807,
        "name": "BEIDOU-3 G3 (C61)",
        "group": "gnss",
        "lat": -1.8298374112229712,
        "lon": 0.12277453339399846,
        "alt_km": 35760.46218612743,
        "timestamp": "2025-12-17T10:52:54.596745+00:00",
        "meta_object_name": "BEIDOU-3 G3 (C61)",
        "meta_object_id": "2020-040A",
        "meta_epoch": "2025-12-16T21:10:01.572096",
        "meta_mean_motion": 1.00272252,
        "meta_eccentricity": 0.00063755,
        "meta_inclination": 2.0011,
        "meta_ra_of_asc_node": 66.6197,
        "meta_arg_of_pericenter": 308.7522,
        "meta_mean_anomaly": 138.4817,
        "meta_ephemeris_type": 0,
        "meta_classification_type": "U",
        "meta_norad_cat_id": 45807,
        "meta_element_set_no": 999,
        "meta_rev_at_epoch": 2024,
        "meta_bstar": 0,
        "meta_mean_motion_dot": -3.31e-06,
        "meta_mean_motion_ddot": 0,
        "tle_line1": "1 45807U 20040A   25350.88196264 -.00000331  00000+0  00000+0 0  9995",
        "tle_line2": "2 45807   2.0011  66.6197 0006375 308.7522 138.4817  1.00272252 20244"
      },
      "geometry": {
        "type": "Point",
        "coordinates": [
          0.12277453339399846,
          -1.8298374112229712
        ]
      }
    },
    {
      "type": "Feature",
      "properties": {
        "norad_id": 45854,
        "name": "GPS BIII-3  (PRN 23)",
        "group": "gnss",
        "lat": 26.770623649129718,
        "lon": -163.4437251987262,
        "alt_km": 20089.245520020264,
        "timestamp": "2025-12-17T10:52:54.596757+00:00",
        "meta_object_name": "GPS BIII-3  (PRN 23)",
        "meta_object_id": "2020-041A",
        "meta_epoch": "2025-12-15T05:19:26.228640",
        "meta_mean_motion": 2.00562018,
        "meta_eccentricity": 0.00605633,
        "meta_inclination": 56.5487,
        "meta_ra_of_asc_node": 36.0887,
        "meta_arg_of_pericenter": 203.5004,
        "meta_mean_anomaly": 133.1292,
        "meta_ephemeris_type": 0,
        "meta_classification_type": "U",
        "meta_norad_cat_id": 45854,
        "meta_element_set_no": 999,
        "meta_rev_at_epoch": 4034,
        "meta_bstar": 0,
        "meta_mean_motion_dot": -9e-07,
        "meta_mean_motion_ddot": 0,
        "tle_line1": "1 45854U 20041A   25349.22183135 -.00000090  00000+0  00000+0 0  9999",
        "tle_line2": "2 45854  56.5487  36.0887 0060563 203.5004 133.1292  2.00562018 40345"
      },
      "geometry": {
        "type": "Point",
        "coordinates": [
          -163.4437251987262,
          26.770623649129718
        ]
      }
    },
    {
      "type": "Feature",
      "properties": {
        "norad_id": 46114,
        "name": "GALAXY 30 (WAAS/PRN 135)",
        "group": "gnss",
        "lat": 0.03309351183620865,
        "lon": 124.53310175753842,
        "alt_km": 35792.50794447768,
        "timestamp": "2025-12-17T10:52:54.596771+00:00",
        "meta_object_name": "GALAXY 30 (WAAS/PRN 135)",
        "meta_object_id": "2020-056C",
        "meta_epoch": "2025-12-16T10:32:38.625216",
        "meta_mean_motion": 1.00271809,
        "meta_eccentricity": 0.00020504,
        "meta_inclination": 0.0174,
        "meta_ra_of_asc_node": 8.9673,
        "meta_arg_of_pericenter": 254.0657,
        "meta_mean_anomaly": 215.4609,
        "meta_ephemeris_type": 0,
        "meta_classification_type": "U",
        "meta_norad_cat_id": 46114,
        "meta_element_set_no": 999,
        "meta_rev_at_epoch": 1946,
        "meta_bstar": 0,
        "meta_mean_motion_dot": 6e-07,
        "meta_mean_motion_ddot": 0,
        "tle_line1": "1 46114U 20056C   25350.43933594  .00000060  00000+0  00000+0 0  9998",
        "tle_line2": "2 46114   0.0174   8.9673 0002050 254.0657 215.4609  1.00271809 19464"
      },
      "geometry": {
        "type": "Point",
        "coordinates": [
          124.53310175753842,
          0.03309351183620865
        ]
      }
    },
    {
      "type": "Feature",
      "properties": {
        "norad_id": 46805,
        "name": "COSMOS 2547 (705K)",
        "group": "gnss",
        "lat": 64.42387063346521,
        "lon": -78.16953969036044,
        "alt_km": 19135.600664676305,
        "timestamp": "2025-12-17T10:52:54.596783+00:00",
        "meta_object_name": "COSMOS 2547 (705K)",
        "meta_object_id": "2020-075A",
        "meta_epoch": "2025-12-15T22:22:03.065088",
        "meta_mean_motion": 2.13100081,
        "meta_eccentricity": 0.00062311,
        "meta_inclination": 64.5961,
        "meta_ra_of_asc_node": 198.5898,
        "meta_arg_of_pericenter": 228.6409,
        "meta_mean_anomaly": 131.3861,
        "meta_ephemeris_type": 0,
        "meta_classification_type": "U",
        "meta_norad_cat_id": 46805,
        "meta_element_set_no": 999,
        "meta_rev_at_epoch": 4000,
        "meta_bstar": 0,
        "meta_mean_motion_dot": 1.08e-06,
        "meta_mean_motion_ddot": 0,
        "tle_line1": "1 46805U 20075A   25349.93197992  .00000108  00000+0  00000+0 0  9996",
        "tle_line2": "2 46805  64.5961 198.5898 0006231 228.6409 131.3861  2.13100081 40000"
      },
      "geometry": {
        "type": "Point",
        "coordinates": [
          -78.16953969036044,
          64.42387063346521
        ]
      }
    },
    {
      "type": "Feature",
      "properties": {
        "norad_id": 46826,
        "name": "GPS BIII-4  (PRN 14)",
        "group": "gnss",
        "lat": 45.47103498638157,
        "lon": -9.424600488427728,
        "alt_km": 20161.107404333245,
        "timestamp": "2025-12-17T10:52:54.596794+00:00",
        "meta_object_name": "GPS BIII-4  (PRN 14)",
        "meta_object_id": "2020-078A",
        "meta_epoch": "2025-12-16T01:06:13.902336",
        "meta_mean_motion": 2.00566891,
        "meta_eccentricity": 0.00647559,
        "meta_inclination": 54.0145,
        "meta_ra_of_asc_node": 218.2068,
        "meta_arg_of_pericenter": 203.3837,
        "meta_mean_anomaly": 339.3927,
        "meta_ephemeris_type": 0,
        "meta_classification_type": "U",
        "meta_norad_cat_id": 46826,
        "meta_element_set_no": 999,
        "meta_rev_at_epoch": 3783,
        "meta_bstar": 0,
        "meta_mean_motion_dot": 6.7e-07,
        "meta_mean_motion_ddot": 0,
        "tle_line1": "1 46826U 20078A   25350.04599424  .00000067  00000+0  00000+0 0  9996",
        "tle_line2": "2 46826  54.0145 218.2068 0064755 203.3837 339.3927  2.00566891 37831"
      },
      "geometry": {
        "type": "Point",
        "coordinates": [
          -9.424600488427728,
          45.47103498638157
        ]
      }
    }
  ]
}